NORAD_CAT_ID,OBJECT_NAME,OBJECT_TYPE,EPOCH,MEAN_MOTION,ECCENTRICITY,INCLINATION,RA_OF_ASC_NODE,ARG_OF_PERICENTER,MEAN_ANOMALY,BSTAR,MEAN_MOTION_DOT,MEAN_MOTION_DDOT,TLE_LINE0,TLE_LINE1,TLE_LINE2,SEMIMAJOR_AXIS,PERIOD,APOGEE,PERIGEE,DECAYED
49743.0,STARLINK-3239,PAYLOAD,2022-11-16 20:54:23,15.08846896,0.0002065,53.2145,175.7194,45.5427,314.5734,0.00048048,7.368e-05,0.0,0 STARLINK-3239,1 49743U 21115V   22320.87110337  .00007368  00000-0  48048-3 0  9997,2 49743  53.2145 175.7194 0002065  45.5427 314.5734 15.08846896 54150,6917.859,95.437,541.153,538.2959999999998,0.0
49743.0,STARLINK-3239,PAYLOAD,2022-11-17 01:40:32,15.08851149,0.0002088,53.2148,174.8279,45.0411,315.075,0.00058651,9.061e-05,0.0,0 STARLINK-3239,1 49743U 21115V   22321.06982274  .00009061  00000-0  58651-3 0  9999,2 49743  53.2148 174.8279 0002088  45.0411 315.0750 15.08851149 53071,6917.846,95.437,541.156,538.2669999999998,0.0
49743.0,STARLINK-3239,PAYLOAD,2022-11-17 19:09:46,15.08850058,0.000211,53.2157,171.5561,47.4226,312.6944,0.00025245,3.733e-05,0.0,0 STARLINK-3239,1 49743U 21115V   22321.79845921  .00003733  00000-0  25245-3 0  9999,2 49743  53.2157 171.5561 0002110  47.4226 312.6944 15.08850058 53183,6917.85,95.437,541.174,538.255,0.0
49743.0,STARLINK-3239,PAYLOAD,2022-11-17 23:55:56,15.08842935,0.0002084,53.2154,170.6646,45.488,314.6282,8.532e-05,1.07e-05,0.0,0 STARLINK-3239,1 49743U 21115V   22321.99718090  .00001070  00000-0  85320-4 0  9990,2 49743  53.2154 170.6646 0002084  45.4880 314.6282 15.08842935 54327,6917.871,95.437,541.178,538.295,0.0
49743.0,STARLINK-3239,PAYLOAD,2022-11-18 20:35:56,15.08850967,0.0002092,53.2153,166.7987,45.8117,314.3047,0.00011193,1.494e-05,0.0,0 STARLINK-3239,1 49743U 21115V   22322.85829455  .00001494  00000-0  11193-3 0  9990,2 49743  53.2153 166.7987 0002092  45.8117 314.3047 15.08850967 53347,6917.847,95.437,541.159,538.265,0.0
49743.0,STARLINK-3239,PAYLOAD,2022-11-19 06:08:15,15.08851917,0.0002114,53.2153,165.0146,46.2302,313.8864,0.00011559,1.552e-05,0.0,0 STARLINK-3239,1 49743U 21115V   22323.25573194  .00001552  00000-0  11559-3 0  9992,2 49743  53.2153 165.0146 0002114  46.2302 313.8864 15.08851917 53406,6917.844,95.437,541.1709999999998,538.247,0.0
49743.0,STARLINK-3239,PAYLOAD,2022-11-19 14:05:11,15.08846944,0.0002099,53.2152,163.5278,47.7484,312.3686,7.758899999999999e-05,9.47e-06,0.0,0 STARLINK-3239,1 49743U 21115V   22323.58693338  .00000947  00000-0  77589-4 0  9994,2 49743  53.2152 163.5278 0002099  47.7484 312.3686 15.08846944 54561,6917.859,95.437,541.1759999999998,538.2719999999998,0.0
49743.0,STARLINK-3239,PAYLOAD,2022-11-19 20:26:43,15.08844261,0.0002106,53.2152,162.3382,45.8511,314.2654,-0.00012563,-2.287e-05,0.0,0 STARLINK-3239,1 49743U 21115V   22323.85189385 -.00002287  00000-0 -12563-3 0  9997,2 49743  53.2152 162.3382 0002106  45.8511 314.2654 15.08844261 53490,6917.8669999999975,95.437,541.189,538.275,0.0
49743.0,STARLINK-3239,PAYLOAD,2022-11-19 23:37:30,15.08835335,0.0002095,53.2158,161.7435,46.5109,313.6057,4.1822e-05,3.77e-06,0.0,0 STARLINK-3239,1 49743U 21115V   22323.98438083  .00000377  00000-0  41822-4 0  9990,2 49743  53.2158 161.7435 0002095  46.5109 313.6057 15.08835335 54624,6917.895,95.438,541.2090000000002,538.31,0.0
49743.0,STARLINK-3239,PAYLOAD,2022-11-20 13:55:58,15.08839652,0.0002156,53.2156,159.0672,46.2558,313.8612,2.073e-05,4.2e-07,0.0,0 STARLINK-3239,1 49743U 21115V   22324.58053990  .00000042  00000-0  20730-4 0  9991,2 49743  53.2156 159.0672 0002156  46.2558 313.8612 15.08839652 53600,6917.880999999999,95.438,541.238,538.255,0.0
49743.0,STARLINK-3239,PAYLOAD,2022-11-20 18:42:07,15.08840138,0.0002104,53.2158,158.175,47.5954,312.5216,1.3751e-05,-6.9e-07,0.0,0 STARLINK-3239,1 49743U 21115V   22324.77925879 -.00000069  00000-0  13751-4 0  9991,2 49743  53.2158 158.1750 0002104  47.5954 312.5216 15.08840138 53636,6917.88,95.438,541.2,538.289,0.0
49743.0,STARLINK-3239,PAYLOAD,2022-11-20 23:28:17,15.08842033,0.0002115,53.216,157.2831,47.4062,312.7108,2.7812e-05,1.54e-06,0.0,0 STARLINK-3239,1 49743U 21115V   22324.97797696  .00000154  00000-0  27812-4 0  9994,2 49743  53.2160 157.2831 0002115  47.4062 312.7108 15.08842033 54774,6917.874,95.437,541.202,538.276,0.0
49743.0,STARLINK-3239,PAYLOAD,2022-11-21 12:11:21,15.08854065,0.0002612,53.2171,154.9043,72.5962,287.5315,0.00017994,2.578e-05,0.0,0 STARLINK-3239,1 49743U 21115V   22325.50788581  .00002578  00000-0  17994-3 0  9998,2 49743  53.2171 154.9043 0002612  72.5962 287.5315 15.08854065 53748,6917.837,95.437,541.509,537.895,0.0
49743.0,STARLINK-3239,PAYLOAD,2022-11-21 18:32:54,15.08841834,0.0002071,53.2161,153.7148,49.0568,311.0604,0.00012908,1.767e-05,0.0,0 STARLINK-3239,1 49743U 21115V   22325.77285414  .00001767  00000-0  12908-3 0  9993,2 49743  53.2161 153.7148 0002071  49.0568 311.0604 15.08841834 53788,6917.875,95.437,541.172,538.307,0.0
49743.0,STARLINK-3239,PAYLOAD,2022-11-22 05:40:36,15.08842245,0.0002164,53.2161,151.6331,50.14,309.9782,0.00016336,2.313e-05,0.0,0 STARLINK-3239,1 49743U 21115V   22326.23653287  .00002313  00000-0  16336-3 0  9999,2 49743  53.2161 151.6331 0002164  50.1400 309.9782 15.08842245 54961,6917.874,95.437,541.236,538.241,0.0
49743.0,STARLINK-3239,PAYLOAD,2022-11-22 13:37:32,15.08841245,0.0002197,53.2163,150.1458,52.4998,307.6193,7.6055e-05,9.22e-06,0.0,0 STARLINK-3239,1 49743U 21115V   22326.56773557  .00000922  00000-0  76055-4 0  9997,2 49743  53.2163 150.1458 0002197  52.4998 307.6193 15.08841245 53903,6917.877,95.437,541.261,538.222,0.0
49743.0,STARLINK-3239,PAYLOAD,2022-11-22 16:48:19,15.08835306,0.0002079,53.2154,149.55100000000004,51.0753,309.0425,1.9256e-05,1.8e-07,0.0,0 STARLINK-3239,1 49743U 21115V   22326.70022048  .00000018  00000-0  19256-4 0  9991,2 49743  53.2154 149.5510 0002079  51.0753 309.0425 15.08835306 55038,6917.895,95.438,541.198,538.322,0.0
49743.0,STARLINK-3239,PAYLOAD,2022-11-22 19:59:04,15.0886328,0.0001974,53.2163,148.9567,65.3818,294.738,-0.00041787,-6.937e-05,0.0,0 STARLINK-3239,1 49743U 21115V   22326.83269435 -.00006937  00000-0 -41787-3 0  9999,2 49743  53.2163 148.9567 0001974  65.3818 294.7380 15.08863280 53946,6917.809,95.436,541.04,538.309,0.0
49743.0,STARLINK-3239,PAYLOAD,2022-11-23 11:52:56,15.08836469,0.0002057,53.2157,145.9826,49.4511,310.666,-2.2829e-05,-6.52e-06,0.0,0 STARLINK-3239,1 49743U 21115V   22327.49510238 -.00000652  00000-0 -22829-4 0  9997,2 49743  53.2157 145.9826 0002057  49.4511 310.6660 15.08836469 54040,6917.891,95.438,541.179,538.3330000000002,0.0
49743.0,STARLINK-3239,PAYLOAD,2022-11-23 18:14:29,15.08838028,0.0002069,53.2159,144.7933,49.5148,310.6024,-2.4534e-05,-6.79e-06,0.0,0 STARLINK-3239,1 49743U 21115V   22327.76006138 -.00000679  00000-0 -24534-4 0  9990,2 49743  53.2159 144.7933 0002069  49.5148 310.6024 15.08838028 55192,6917.886,95.438,541.183,538.32,0.0
49743.0,STARLINK-3239,PAYLOAD,2022-11-24 11:43:43,15.08835142,0.0001967,53.2157,141.5218,49.69,310.4264,4.0242e-05,3.52e-06,0.0,0 STARLINK-3239,1 49743U 21115V   22328.48870148  .00000352  00000-0  40242-4 0  9990,2 49743  53.2157 141.5218 0001967  49.6900 310.4264 15.08835142 54191,6917.895,95.438,541.121,538.399,0.0
49743.0,STARLINK-3239,PAYLOAD,2022-11-24 18:05:16,15.08836751,0.0002052,53.2157,140.3325,50.091,310.0262,4.3022e-05,3.96e-06,0.0,0 STARLINK-3239,1 49743U 21115V   22328.75366128  .00000396  00000-0  43022-4 0  9995,2 49743  53.2157 140.3325 0002052  50.0910 310.0262 15.08836751 54236,6917.89,95.438,541.175,538.336,0.0
49743.0,STARLINK-3239,PAYLOAD,2022-11-25 11:34:30,15.08839993,0.0002203,53.216,137.0621,51.2387,308.8802,9.4236e-05,1.212e-05,0.0,0 STARLINK-3239,1 49743U 21115V   22329.48229947  .00001212  00000-0  94236-4 0  9994,2 49743  53.2160 137.0621 0002203  51.2387 308.8802 15.08839993 55452,6917.88,95.438,541.269,538.221,0.0
49743.0,STARLINK-3239,PAYLOAD,2022-11-25 17:56:02,15.08843594,0.0002191,53.216,135.8725,51.4489,308.6699,0.00010667,1.41e-05,0.0,0 STARLINK-3239,1 49743U 21115V   22329.74725675  .00001410  00000-0  10667-3 0  9997,2 49743  53.2160 135.8725 0002191  51.4489 308.6699 15.08843594 54389,6917.869000000002,95.437,541.25,538.219,0.0
49743.0,STARLINK-3239,PAYLOAD,2022-11-26 19:22:13,15.08838467,0.0002204,53.2157,131.1143,51.1395,308.9794,1.2132e-05,-9.5e-07,0.0,0 STARLINK-3239,1 49743U 21115V   22330.80710067 -.00000095  00000-0  12132-4 0  9994,2 49743  53.2157 131.1143 0002204  51.1395 308.9794 15.08838467 55659,6917.885,95.438,541.275,538.225,0.0
49743.0,STARLINK-3239,PAYLOAD,2022-11-27 11:16:04,15.08843388,0.0002202,53.216,128.1404,50.886,309.2327,-8.2875e-06,-4.2e-06,0.0,0 STARLINK-3239,1 49743U 21115V   22331.46949704 -.00000420  00000-0 -82875-5 0  9994,2 49743  53.2160 128.1404 0002202  50.8860 309.2327 15.08843388 54642,6917.87,95.437,541.258,538.212,0.0
49743.0,STARLINK-3239,PAYLOAD,2022-11-27 20:48:23,15.08841531,0.0002287,53.216,126.3582,49.5377,310.5814,-4.2754e-05,-9.69e-06,0.0,0 STARLINK-3239,1 49743U 21115V   22331.86693904 -.00000969  00000-0 -42754-4 0  9995,2 49743  53.2160 126.3582 0002287  49.5377 310.5814 15.08841531 55814,6917.876,95.437,541.323,538.159,0.0
49743.0,STARLINK-3239,PAYLOAD,2022-11-28 03:09:56,15.08834372,0.0002216,53.216,125.167,50.6996,309.4193,-7.775e-05,-1.525e-05,0.0,0 STARLINK-3239,1 49743U 21115V   22332.13190518 -.00001525  00000-0 -77750-4 0  9992,2 49743  53.2160 125.1670 0002216  50.6996 309.4193 15.08834372 55857,6917.898,95.438,541.2959999999998,538.23,0.0
49743.0,STARLINK-3239,PAYLOAD,2022-11-28 17:28:24,15.08833741,0.0002157,53.2158,122.4907,51.1464,308.972,2.2896e-05,7.6e-07,0.0,0 STARLINK-3239,1 49743U 21115V   22332.72806390  .00000076  00000-0  22896-4 0  9998,2 49743  53.2158 122.4907 0002157  51.1464 308.9720 15.08833741 54833,6917.9,95.438,541.257,538.2719999999998,0.0
